STARLINK-36035          
1 67082U 25298H   25365.25002315 -.01718645  00000+0 -25338-1 0  9993
2 67082  69.9992 197.5340 0003623 271.3394  86.2486 15.58183689  3956
STARLINK-36170          
1 67083U 25298J   25365.25002315 -.01712801  00000+0 -25250-1 0  9995
2 67083  69.9988 197.5311 0003676 270.3181  89.2231 15.58175073  3950
STARLINK-36166          
1 67084U 25298K   25365.25002315 -.01717001  00000+0 -25320-1 0  9991
2 67084  69.9992 197.5287 0003663 271.0511  90.4223 15.58173919  3894
STARLINK-35794          
1 67085U 25298L   25365.25002315 -.01717802  00000+0 -25335-1 0  9997
2 67085  69.9993 197.5267 0003695 269.4581  93.9449 15.58171785  3951
STARLINK-35841          
1 67086U 25298M   25365.25002315 -.01721334  00000+0 -25401-1 0  9997
2 67086  69.9995 197.5240 0003586 270.4056  94.9657 15.58164756  3955
STARLINK-35842          
1 67087U 25298N   25365.25002315 -.01818674  00000+0 -36017-1 0  9997
2 67087  69.9990 197.6801 0003578 274.8164 317.7615 15.50340329  3958
STARLINK-35882          
1 67088U 25298P   25365.25002315 -.01723537  00000+0 -25440-1 0  9999
2 67088  69.9992 197.5202 0003692 271.5802  97.6473 15.58160554  3959
STARLINK-35763          
1 67089U 25298Q   25365.25002315 -.01720174  00000+0 -25396-1 0  9994
2 67089  69.9991 197.5169 0003653 271.8344  99.3588 15.58149645  3956
STARLINK-36060          
1 67090U 25298R   25365.25002315 -.01724750  00000+0 -25466-1 0  9998
2 67090  69.9992 197.5145 0003715 272.2530 100.8441 15.58154301  3898
STARLINK-36097          
1 67091U 25298S   25365.25002315 -.01723850  00000+0 -25461-1 0  9994
2 67091  69.9995 197.5124 0003602 273.2912 101.7650 15.58145539  3951
STARLINK-35792          
1 67092U 25298T   25365.25002315 -.01718694  00000+0 -25374-1 0  9998
2 67092  69.9991 197.5099 0003706 271.8323 105.1299 15.58145690  3892
STARLINK-35784          
1 67093U 25298U   25365.25002315 -.01722984  00000+0 -25446-1 0  9996
2 67093  69.9990 197.5074 0003711 271.4356 107.4583 15.58144508  3958
