CCSDS_OMM_VERS = 2.0
CREATION_DATE  = 
ORIGINATOR     = 

OBJECT_NAME    = STARLINK-36035
OBJECT_ID      = 2025-298H
CENTER_NAME    = EARTH
REF_FRAME      = TEME
TIME_SYSTEM    = UTC
MEAN_ELEMENT_THEORY = SGP/SGP4

EPOCH          = 2025-12-31T06:00:02.000160
MEAN_MOTION    = 15.58183689
ECCENTRICITY   = .00036233
INCLINATION    = 69.9992
RA_OF_ASC_NODE = 197.5340
ARG_OF_PERICENTER = 271.3394
MEAN_ANOMALY   = 86.2486

EPHEMERIS_TYPE = 0
CLASSIFICATION_TYPE = U
NORAD_CAT_ID   = 67082
ELEMENT_SET_NO = 999
REV_AT_EPOCH   = 395
BSTAR          = -.25338028E-1
MEAN_MOTION_DOT = -.1718645E-1
MEAN_MOTION_DDOT = 0

CCSDS_OMM_VERS = 2.0
CREATION_DATE  = 
ORIGINATOR     = 

OBJECT_NAME    = STARLINK-36170
OBJECT_ID      = 2025-298J
CENTER_NAME    = EARTH
REF_FRAME      = TEME
TIME_SYSTEM    = UTC
MEAN_ELEMENT_THEORY = SGP/SGP4

EPOCH          = 2025-12-31T06:00:02.000160
MEAN_MOTION    = 15.58175073
ECCENTRICITY   = .00036761
INCLINATION    = 69.9988
RA_OF_ASC_NODE = 197.5311
ARG_OF_PERICENTER = 270.3181
MEAN_ANOMALY   = 89.2231

EPHEMERIS_TYPE = 0
CLASSIFICATION_TYPE = U
NORAD_CAT_ID   = 67083
ELEMENT_SET_NO = 999
REV_AT_EPOCH   = 395
BSTAR          = -.25249597E-1
MEAN_MOTION_DOT = -.1712801E-1
MEAN_MOTION_DDOT = 0

CCSDS_OMM_VERS = 2.0
CREATION_DATE  = 
ORIGINATOR     = 

OBJECT_NAME    = STARLINK-36166
OBJECT_ID      = 2025-298K
CENTER_NAME    = EARTH
REF_FRAME      = TEME
TIME_SYSTEM    = UTC
MEAN_ELEMENT_THEORY = SGP/SGP4

EPOCH          = 2025-12-31T06:00:02.000160
MEAN_MOTION    = 15.58173919
ECCENTRICITY   = .00036635
INCLINATION    = 69.9992
RA_OF_ASC_NODE = 197.5287
ARG_OF_PERICENTER = 271.0511
MEAN_ANOMALY   = 90.4223

EPHEMERIS_TYPE = 0
CLASSIFICATION_TYPE = U
NORAD_CAT_ID   = 67084
ELEMENT_SET_NO = 999
REV_AT_EPOCH   = 389
BSTAR          = -.25319897E-1
MEAN_MOTION_DOT = -.1717001E-1
MEAN_MOTION_DDOT = 0

CCSDS_OMM_VERS = 2.0
CREATION_DATE  = 
ORIGINATOR     = 

OBJECT_NAME    = STARLINK-35794
OBJECT_ID      = 2025-298L
CENTER_NAME    = EARTH
REF_FRAME      = TEME
TIME_SYSTEM    = UTC
MEAN_ELEMENT_THEORY = SGP/SGP4

EPOCH          = 2025-12-31T06:00:02.000160
MEAN_MOTION    = 15.58171785
ECCENTRICITY   = .00036957
INCLINATION    = 69.9993
RA_OF_ASC_NODE = 197.5267
ARG_OF_PERICENTER = 269.4581
MEAN_ANOMALY   = 93.9449

EPHEMERIS_TYPE = 0
CLASSIFICATION_TYPE = U
NORAD_CAT_ID   = 67085
ELEMENT_SET_NO = 999
REV_AT_EPOCH   = 395
BSTAR          = -.25334749E-1
MEAN_MOTION_DOT = -.1717802E-1
MEAN_MOTION_DDOT = 0

CCSDS_OMM_VERS = 2.0
CREATION_DATE  = 
ORIGINATOR     = 

OBJECT_NAME    = STARLINK-35841
OBJECT_ID      = 2025-298M
CENTER_NAME    = EARTH
REF_FRAME      = TEME
TIME_SYSTEM    = UTC
MEAN_ELEMENT_THEORY = SGP/SGP4

EPOCH          = 2025-12-31T06:00:02.000160
MEAN_MOTION    = 15.58164756
ECCENTRICITY   = .0003586
INCLINATION    = 69.9995
RA_OF_ASC_NODE = 197.5240
ARG_OF_PERICENTER = 270.4056
MEAN_ANOMALY   = 94.9657

EPHEMERIS_TYPE = 0
CLASSIFICATION_TYPE = U
NORAD_CAT_ID   = 67086
ELEMENT_SET_NO = 999
REV_AT_EPOCH   = 395
BSTAR          = -.25400881E-1
MEAN_MOTION_DOT = -.1721334E-1
MEAN_MOTION_DDOT = 0

CCSDS_OMM_VERS = 2.0
CREATION_DATE  = 
ORIGINATOR     = 

OBJECT_NAME    = STARLINK-35842
OBJECT_ID      = 2025-298N
CENTER_NAME    = EARTH
REF_FRAME      = TEME
TIME_SYSTEM    = UTC
MEAN_ELEMENT_THEORY = SGP/SGP4

EPOCH          = 2025-12-31T06:00:02.000160
MEAN_MOTION    = 15.50340329
ECCENTRICITY   = .00035781
INCLINATION    = 69.9990
RA_OF_ASC_NODE = 197.6801
ARG_OF_PERICENTER = 274.8164
MEAN_ANOMALY   = 317.7615

EPHEMERIS_TYPE = 0
CLASSIFICATION_TYPE = U
NORAD_CAT_ID   = 67087
ELEMENT_SET_NO = 999
REV_AT_EPOCH   = 395
BSTAR          = -.36017408E-1
MEAN_MOTION_DOT = -.1818674E-1
MEAN_MOTION_DDOT = 0

CCSDS_OMM_VERS = 2.0
CREATION_DATE  = 
ORIGINATOR     = 

OBJECT_NAME    = STARLINK-35882
OBJECT_ID      = 2025-298P
CENTER_NAME    = EARTH
REF_FRAME      = TEME
TIME_SYSTEM    = UTC
MEAN_ELEMENT_THEORY = SGP/SGP4

EPOCH          = 2025-12-31T06:00:02.000160
MEAN_MOTION    = 15.58160554
ECCENTRICITY   = .00036921
INCLINATION    = 69.9992
RA_OF_ASC_NODE = 197.5202
ARG_OF_PERICENTER = 271.5802
MEAN_ANOMALY   = 97.6473

EPHEMERIS_TYPE = 0
CLASSIFICATION_TYPE = U
NORAD_CAT_ID   = 67088
ELEMENT_SET_NO = 999
REV_AT_EPOCH   = 395
BSTAR          = -.25439963E-1
MEAN_MOTION_DOT = -.1723537E-1
MEAN_MOTION_DDOT = 0

CCSDS_OMM_VERS = 2.0
CREATION_DATE  = 
ORIGINATOR     = 

OBJECT_NAME    = STARLINK-35763
OBJECT_ID      = 2025-298Q
CENTER_NAME    = EARTH
REF_FRAME      = TEME
TIME_SYSTEM    = UTC
MEAN_ELEMENT_THEORY = SGP/SGP4

EPOCH          = 2025-12-31T06:00:02.000160
MEAN_MOTION    = 15.58149645
ECCENTRICITY   = .00036531
INCLINATION    = 69.9991
RA_OF_ASC_NODE = 197.5169
ARG_OF_PERICENTER = 271.8344
MEAN_ANOMALY   = 99.3588

EPHEMERIS_TYPE = 0
CLASSIFICATION_TYPE = U
NORAD_CAT_ID   = 67089
ELEMENT_SET_NO = 999
REV_AT_EPOCH   = 395
BSTAR          = -.25395535E-1
MEAN_MOTION_DOT = -.1720174E-1
MEAN_MOTION_DDOT = 0

CCSDS_OMM_VERS = 2.0
CREATION_DATE  = 
ORIGINATOR     = 

OBJECT_NAME    = STARLINK-36060
OBJECT_ID      = 2025-298R
CENTER_NAME    = EARTH
REF_FRAME      = TEME
TIME_SYSTEM    = UTC
MEAN_ELEMENT_THEORY = SGP/SGP4

EPOCH          = 2025-12-31T06:00:02.000160
MEAN_MOTION    = 15.58154301
ECCENTRICITY   = .00037153
INCLINATION    = 69.9992
RA_OF_ASC_NODE = 197.5145
ARG_OF_PERICENTER = 272.2530
MEAN_ANOMALY   = 100.8441

EPHEMERIS_TYPE = 0
CLASSIFICATION_TYPE = U
NORAD_CAT_ID   = 67090
ELEMENT_SET_NO = 999
REV_AT_EPOCH   = 389
BSTAR          = -.25465683E-1
MEAN_MOTION_DOT = -.172475E-1
MEAN_MOTION_DDOT = 0

CCSDS_OMM_VERS = 2.0
CREATION_DATE  = 
ORIGINATOR     = 

OBJECT_NAME    = STARLINK-36097
OBJECT_ID      = 2025-298S
CENTER_NAME    = EARTH
REF_FRAME      = TEME
TIME_SYSTEM    = UTC
MEAN_ELEMENT_THEORY = SGP/SGP4

EPOCH          = 2025-12-31T06:00:02.000160
MEAN_MOTION    = 15.58145539
ECCENTRICITY   = .00036028
INCLINATION    = 69.9995
RA_OF_ASC_NODE = 197.5124
ARG_OF_PERICENTER = 273.2912
MEAN_ANOMALY   = 101.7650

EPHEMERIS_TYPE = 0
CLASSIFICATION_TYPE = U
NORAD_CAT_ID   = 67091
ELEMENT_SET_NO = 999
REV_AT_EPOCH   = 395
BSTAR          = -.25460618E-1
MEAN_MOTION_DOT = -.172385E-1
MEAN_MOTION_DDOT = 0

CCSDS_OMM_VERS = 2.0
CREATION_DATE  = 
ORIGINATOR     = 

OBJECT_NAME    = STARLINK-35792
OBJECT_ID      = 2025-298T
CENTER_NAME    = EARTH
REF_FRAME      = TEME
TIME_SYSTEM    = UTC
MEAN_ELEMENT_THEORY = SGP/SGP4

EPOCH          = 2025-12-31T06:00:02.000160
MEAN_MOTION    = 15.58145690
ECCENTRICITY   = .00037062
INCLINATION    = 69.9991
RA_OF_ASC_NODE = 197.5099
ARG_OF_PERICENTER = 271.8323
MEAN_ANOMALY   = 105.1299

EPHEMERIS_TYPE = 0
CLASSIFICATION_TYPE = U
NORAD_CAT_ID   = 67092
ELEMENT_SET_NO = 999
REV_AT_EPOCH   = 389
BSTAR          = -.25374347E-1
MEAN_MOTION_DOT = -.1718694E-1
MEAN_MOTION_DDOT = 0

CCSDS_OMM_VERS = 2.0
CREATION_DATE  = 
ORIGINATOR     = 

OBJECT_NAME    = STARLINK-35784
OBJECT_ID      = 2025-298U
CENTER_NAME    = EARTH
REF_FRAME      = TEME
TIME_SYSTEM    = UTC
MEAN_ELEMENT_THEORY = SGP/SGP4

EPOCH          = 2025-12-31T06:00:02.000160
MEAN_MOTION    = 15.58144508
ECCENTRICITY   = .00037116
INCLINATION    = 69.9990
RA_OF_ASC_NODE = 197.5074
ARG_OF_PERICENTER = 271.4356
MEAN_ANOMALY   = 107.4583

EPHEMERIS_TYPE = 0
CLASSIFICATION_TYPE = U
NORAD_CAT_ID   = 67093
ELEMENT_SET_NO = 999
REV_AT_EPOCH   = 395
BSTAR          = -.25446068E-1
MEAN_MOTION_DOT = -.1722984E-1
MEAN_MOTION_DDOT = 0

